[{"OBJECT_NAME":"STARLINK-6209","OBJECT_ID":"2023-083B","EPOCH":"2026-03-09T09:38:15.697248","MEAN_MOTION":15.02533741,"ECCENTRICITY":0.00012814,"INCLINATION":43.0042,"RA_OF_ASC_NODE":83.6363,"ARG_OF_PERICENTER":266.0049,"MEAN_ANOMALY":94.0647,"EPHEMERIS_TYPE":0,"CLASSIFICATION_TYPE":"U","NORAD_CAT_ID":56877,"ELEMENT_SET_NO":999,"REV_AT_EPOCH":15162,"BSTAR":2.0343276e-5,"MEAN_MOTION_DOT":7.1e-7,"MEAN_MOTION_DDOT":0},{"OBJECT_NAME":"COSMOS 2251 DEB","OBJECT_ID":"1993-036AXJ","EPOCH":"2026-03-07T16:14:39.475392","MEAN_MOTION":15.02350149,"ECCENTRICITY":0.00052276,"INCLINATION":74.0329,"RA_OF_ASC_NODE":161.7612,"ARG_OF_PERICENTER":248.7206,"MEAN_ANOMALY":111.3424,"EPHEMERIS_TYPE":0,"CLASSIFICATION_TYPE":"U","NORAD_CAT_ID":36047,"ELEMENT_SET_NO":999,"REV_AT_EPOCH":67212,"BSTAR":0.0041103158,"MEAN_MOTION_DOT":0.00054783,"MEAN_MOTION_DDOT":0}]
